ONEWEB-0275             
1 48993U 21060AC  24133.40806573 -.00000013  00000+0 -67215-4 0  9998
2 48993  87.9140  21.2093 0001932  86.4901 273.6450 13.16594047138799
ONEWEB-0276             
1 48994U 21060AD  24133.66930213  .00000121  00000+0  28323-3 0  9990
2 48994  87.9138  21.1535 0002040  89.8385 270.2980 13.16593077140146
ONEWEB-0277             
1 48995U 21060AE  24133.60596837  .00000097  00000+0  22104-3 0  9998
2 48995  87.9138  21.2043 0001978  98.1232 262.0124 13.16593432138821
ONEWEB-0278             
1 48996U 21060AF  24133.74846564  .00000212  00000+0  52046-3 0  9996
2 48996  87.9139  21.1348 0002113  76.0092 284.1274 13.16596401140284
ONEWEB-0279             
1 48997U 21060AG  24133.60438526  .00000090  00000+0  20143-3 0  9994
2 48997  87.9139  21.1611 0001881  95.8837 264.2509 13.16593474138885
ONEWEB-0280             
1 48998U 21060AH  24133.92261978  .00000135  00000+0  31888-3 0  9993
2 48998  87.9142  21.0990 0002100  83.3995 276.7375 13.16593719140155
ONEWEB-0281             
1 48999U 21060AJ  24133.92896089  .00000088  00000+0  19622-3 0  9990
2 48999  87.9142  21.1000 0001627  79.3619 280.7695 13.16595340140242
ONEWEB-0282             
1 49000U 21060AK  24133.42705055 -.00000256  00000+0 -70298-3 0  9996
2 49000  87.9137  21.2161 0002088  90.5555 269.5815 13.16593544138841
